sat11170
1 11170U 78122B   20046.93477300  .00000001  00000-0 -30262-4 0  9994
2 11170  82.9714 295.2389 0025779 156.0579 214.9372 13.22045475967210
